{
  "type": "FeatureCollection",
  "features": [
    {
      "type": "Feature",
      "properties": {
        "norad_id": 29807,
        "name": "FENGYUN 1C DEB",
        "group": "fengyun-1c-debris",
        "lat": 71.98967177810414,
        "lon": -25.07949876752023,
        "alt_km": 898.6899354371262,
        "timestamp": "2025-12-24T22:42:22.302610+00:00",
        "meta_object_name": "FENGYUN 1C DEB",
        "meta_object_id": "1999-025CZ",
        "meta_epoch": "2025-12-24T07:00:44.182656",
        "meta_mean_motion": 14.08668283,
        "meta_eccentricity": 0.00791042,
        "meta_inclination": 98.7548,
        "meta_ra_of_asc_node": 2.5781,
        "meta_arg_of_pericenter": 299.0332,
        "meta_mean_anomaly": 60.2929,
        "meta_ephemeris_type": 0,
        "meta_classification_type": "U",
        "meta_norad_cat_id": 29807,
        "meta_element_set_no": 999,
        "meta_rev_at_epoch": 97257,
        "meta_bstar": 0.00026920238,
        "meta_mean_motion_dot": 4.33e-06,
        "meta_mean_motion_ddot": 0,
        "tle_line1": "1 29807U 99025CZ  25358.29217804  .00000433  00000+0  26920-3 0  9998",
        "tle_line2": "2 29807  98.7548   2.5781 0079104 299.0332  60.2929 14.08668283972575"
      },
      "geometry": {
        "type": "Point",
        "coordinates": [
          -25.07949876752023,
          71.98967177810414
        ]
      }
    },
    {
      "type": "Feature",
      "properties": {
        "norad_id": 29808,
        "name": "FENGYUN 1C DEB",
        "group": "fengyun-1c-debris",
        "lat": -77.30112514207941,
        "lon": -35.44374288566418,
        "alt_km": 496.63606085414267,
        "timestamp": "2025-12-24T22:42:22.302621+00:00",
        "meta_object_name": "FENGYUN 1C DEB",
        "meta_object_id": "1999-025DA",
        "meta_epoch": "2025-12-23T06:56:29.399424",
        "meta_mean_motion": 15.28574951,
        "meta_eccentricity": 0.00215755,
        "meta_inclination": 99.0119,
        "meta_ra_of_asc_node": 277.7776,
        "meta_arg_of_pericenter": 80.8991,
        "meta_mean_anomaly": 82.1825,
        "meta_ephemeris_type": 0,
        "meta_classification_type": "U",
        "meta_norad_cat_id": 29808,
        "meta_element_set_no": 999,
        "meta_rev_at_epoch": 98386,
        "meta_bstar": 0.014754525,
        "meta_mean_motion_dot": 0.00436764,
        "meta_mean_motion_ddot": 0,
        "tle_line1": "1 29808U 99025DA  25357.28922916  .00436764  00000+0  14755-1 0  9995",
        "tle_line2": "2 29808  99.0119 277.7776 0021575  80.8991  82.1825 15.28574951983863"
      },
      "geometry": {
        "type": "Point",
        "coordinates": [
          -35.44374288566418,
          -77.30112514207941
        ]
      }
    },
    {
      "type": "Feature",
      "properties": {
        "norad_id": 29809,
        "name": "FENGYUN 1C DEB",
        "group": "fengyun-1c-debris",
        "lat": -37.57587366867868,
        "lon": -30.061174243574413,
        "alt_km": 661.7683275921845,
        "timestamp": "2025-12-24T22:42:22.302631+00:00",
        "meta_object_name": "FENGYUN 1C DEB",
        "meta_object_id": "1999-025DB",
        "meta_epoch": "2025-12-23T09:24:12.862656",
        "meta_mean_motion": 14.46619704,
        "meta_eccentricity": 0.01155176,
        "meta_inclination": 98.8618,
        "meta_ra_of_asc_node": 321.419,
        "meta_arg_of_pericenter": 318.0004,
        "meta_mean_anomaly": 194.0294,
        "meta_ephemeris_type": 0,
        "meta_classification_type": "U",
        "meta_norad_cat_id": 29809,
        "meta_element_set_no": 999,
        "meta_rev_at_epoch": 99621,
        "meta_bstar": 0.00033283893,
        "meta_mean_motion_dot": 1.25e-05,
        "meta_mean_motion_ddot": 0,
        "tle_line1": "1 29809U 99025DB  25357.39181554  .00001250  00000+0  33284-3 0  9991",
        "tle_line2": "2 29809  98.8618 321.4190 0115517 318.0004 194.0294 14.46619704996214"
      },
      "geometry": {
        "type": "Point",
        "coordinates": [
          -30.061174243574413,
          -37.57587366867868
        ]
      }
    },
    {
      "type": "Feature",
      "properties": {
        "norad_id": 29810,
        "name": "FENGYUN 1C DEB",
        "group": "fengyun-1c-debris",
        "lat": -60.33720718678418,
        "lon": 52.98981232163032,
        "alt_km": 768.0798209651575,
        "timestamp": "2025-12-24T22:42:22.302641+00:00",
        "meta_object_name": "FENGYUN 1C DEB",
        "meta_object_id": "1999-025DC",
        "meta_epoch": "2025-12-24T01:25:17.572224",
        "meta_mean_motion": 14.29144993,
        "meta_eccentricity": 0.00664065,
        "meta_inclination": 99.2053,
        "meta_ra_of_asc_node": 35.511,
        "meta_arg_of_pericenter": 346.3419,
        "meta_mean_anomaly": 72.3058,
        "meta_ephemeris_type": 0,
        "meta_classification_type": "U",
        "meta_norad_cat_id": 29810,
        "meta_element_set_no": 999,
        "meta_rev_at_epoch": 98539,
        "meta_bstar": 0.00024608596,
        "meta_mean_motion_dot": 5.9e-06,
        "meta_mean_motion_ddot": 0,
        "tle_line1": "1 29810U 99025DC  25358.05923116  .00000590  00000+0  24609-3 0  9992",
        "tle_line2": "2 29810  99.2053  35.5110 0066406 346.3419  72.3058 14.29144993985392"
      },
      "geometry": {
        "type": "Point",
        "coordinates": [
          52.98981232163032,
          -60.33720718678418
        ]
      }
    },
    {
      "type": "Feature",
      "properties": {
        "norad_id": 29812,
        "name": "FENGYUN 1C DEB",
        "group": "fengyun-1c-debris",
        "lat": 65.47961696121997,
        "lon": 167.9899847068252,
        "alt_km": 951.4337582792941,
        "timestamp": "2025-12-24T22:42:22.302652+00:00",
        "meta_object_name": "FENGYUN 1C DEB",
        "meta_object_id": "1999-025DE",
        "meta_epoch": "2025-12-22T12:25:28.951680",
        "meta_mean_motion": 14.02020328,
        "meta_eccentricity": 0.01437047,
        "meta_inclination": 98.3493,
        "meta_ra_of_asc_node": 184.545,
        "meta_arg_of_pericenter": 300.2704,
        "meta_mean_anomaly": 115.4819,
        "meta_ephemeris_type": 0,
        "meta_classification_type": "U",
        "meta_norad_cat_id": 29812,
        "meta_element_set_no": 999,
        "meta_rev_at_epoch": 96309,
        "meta_bstar": 0.0010836609,
        "meta_mean_motion_dot": 1.77e-05,
        "meta_mean_motion_ddot": 0,
        "tle_line1": "1 29812U 99025DE  25356.51769620  .00001770  00000+0  10837-2 0  9999",
        "tle_line2": "2 29812  98.3493 184.5450 0143704 300.2704 115.4819 14.02020328963090"
      },
      "geometry": {
        "type": "Point",
        "coordinates": [
          167.9899847068252,
          65.47961696121997
        ]
      }
    },
    {
      "type": "Feature",
      "properties": {
        "norad_id": 29813,
        "name": "FENGYUN 1C DEB",
        "group": "fengyun-1c-debris",
        "lat": 22.116097962612717,
        "lon": 14.849624403813664,
        "alt_km": 869.4901680649509,
        "timestamp": "2025-12-24T22:42:22.302662+00:00",
        "meta_object_name": "FENGYUN 1C DEB",
        "meta_object_id": "1999-025DF",
        "meta_epoch": "2025-12-24T00:35:19.161312",
        "meta_mean_motion": 14.0945418,
        "meta_eccentricity": 0.0012354,
        "meta_inclination": 98.7266,
        "meta_ra_of_asc_node": 17.5353,
        "meta_arg_of_pericenter": 189.093,
        "meta_mean_anomaly": 199.9981,
        "meta_ephemeris_type": 0,
        "meta_classification_type": "U",
        "meta_norad_cat_id": 29813,
        "meta_element_set_no": 999,
        "meta_rev_at_epoch": 97419,
        "meta_bstar": 1.7484678e-05,
        "meta_mean_motion_dot": -1.2e-07,
        "meta_mean_motion_ddot": 0,
        "tle_line1": "1 29813U 99025DF  25358.02452733 -.00000012  00000+0  17485-4 0  9999",
        "tle_line2": "2 29813  98.7266  17.5353 0012354 189.0930 199.9981 14.09454180974194"
      },
      "geometry": {
        "type": "Point",
        "coordinates": [
          14.849624403813664,
          22.116097962612717
        ]
      }
    },
    {
      "type": "Feature",
      "properties": {
        "norad_id": 29815,
        "name": "FENGYUN 1C DEB",
        "group": "fengyun-1c-debris",
        "lat": -43.00039647724731,
        "lon": 179.60368092348511,
        "alt_km": 763.4043844732123,
        "timestamp": "2025-12-24T22:42:22.302672+00:00",
        "meta_object_name": "FENGYUN 1C DEB",
        "meta_object_id": "1999-025DH",
        "meta_epoch": "2025-12-24T00:22:42.328416",
        "meta_mean_motion": 14.63782242,
        "meta_eccentricity": 0.01841375,
        "meta_inclination": 98.0549,
        "meta_ra_of_asc_node": 6.2823,
        "meta_arg_of_pericenter": 99.8617,
        "meta_mean_anomaly": 262.3428,
        "meta_ephemeris_type": 0,
        "meta_classification_type": "U",
        "meta_norad_cat_id": 29815,
        "meta_element_set_no": 999,
        "meta_rev_at_epoch": 16,
        "meta_bstar": 0.00053862719,
        "meta_mean_motion_dot": 3.543e-05,
        "meta_mean_motion_ddot": 0,
        "tle_line1": "1 29815U 99025DH  25358.01576769  .00003543  00000+0  53863-3 0  9996",
        "tle_line2": "2 29815  98.0549   6.2823 0184137  99.8617 262.3428 14.63782242   160"
      },
      "geometry": {
        "type": "Point",
        "coordinates": [
          179.60368092348511,
          -43.00039647724731
        ]
      }
    }
  ]
}